{
  "code": "1687ch",
  "managerUUID": "d297bb75-859a-45dd-aed5-ad02577b3275",
  "address": {
    "street": "Walton",
    "city": "Fort Smith",
    "state": "AR",
    "zip": "72905"
  }
}
{
  "code": "92nc89",
  "managerUUID": "df3daf4b-5b73-4043-9655-b1448bfde82e",
  "address": {
    "street": "Comanche",
    "city": "Abilene",
    "state": "TX",
    "zip": "79605"
  }
}
{
  "code": "1je99s",
  "managerUUID": "bb8d1da1-83c2-487e-8e6e-29e5d3db5e15",
  "address": {
    "street": "Anniversary",
    "city": "Syracuse",
    "state": "NY",
    "zip": "13224"
  }
}
{
  "code": "ps4510",
  "managerUUID": "c6fba0db-c5d6-47e5-a225-0a208a374023",
  "address": {
    "street": "Lillian",
    "city": "Dallas",
    "state": "TX",
    "zip": "75205"
  }
}
{
  "code": "h71j81",
  "managerUUID": "fe52922d-5e0c-4745-b4b1-edda5c03f9f0",
  "address": {
    "street": "Northland",
    "city": "Boston",
    "state": "MA",
    "zip": "02119"
  }
}
{
  "code": "03ppac",
  "managerUUID": "c74bc0b5-32c7-40e2-ac4a-b6c4a0112595",
  "address": {
    "street": "Eastwood",
    "city": "Gary",
    "state": "IN",
    "zip": "46406"
  }
}
{
  "code": "ge720q",
  "managerUUID": "413f552c-7908-4601-a252-32b6c09ec6ae",
  "address": {
    "street": "Transport",
    "city": "Winston Salem",
    "state": "NC",
    "zip": "27105"
  }
}
{
  "code": "81b50p",
  "managerUUID": "568eb4cf-5167-4d1f-a842-577018d318ad",
  "address": {
    "street": "Hoepker",
    "city": "Tulsa",
    "state": "OK",
    "zip": "74133"
  }
}
{
  "code": "bs8ian",
  "managerUUID": "48a74ae8-eb45-4f5b-8f75-3cb5dc400f73",
  "address": {
    "street": "Sugar",
    "city": "Newark",
    "state": "DE",
    "zip": "19714"
  }
}
{
  "code": "932f63",
  "managerUUID": "92565ac9-8107-43af-9d47-de6f04c2f1fb",
  "address": {
    "street": "5th",
    "city": "Baltimore",
    "state": "MD",
    "zip": "21216"
  }
}
